NORAD_CAT_ID,OBJECT_NAME,OBJECT_TYPE,EPOCH,MEAN_MOTION,ECCENTRICITY,INCLINATION,RA_OF_ASC_NODE,ARG_OF_PERICENTER,MEAN_ANOMALY,BSTAR,MEAN_MOTION_DOT,MEAN_MOTION_DDOT,TLE_LINE0,TLE_LINE1,TLE_LINE2,SEMIMAJOR_AXIS,PERIOD,APOGEE,PERIGEE,DECAYED
54076.0,STARLINK-5201,PAYLOAD,2023-02-17 21:36:15,15.08825729,0.0001785,53.2186,312.6691,81.4233,278.6962,0.00015982,2.255e-05,0.0,0 STARLINK-5201,1 54076U 22136AB  23048.90018185  .00002255  00000-0  15982-3 0  9997,2 54076  53.2186 312.6691 0001785  81.4233 278.6962 15.08825729 18409,6917.924,95.438,541.024,538.554,0.0
54076.0,STARLINK-5201,PAYLOAD,2023-02-18 00:47:01,15.08836726,0.0001075,53.2179,312.0715,96.5024,263.609,0.00052366,8.055e-05,0.0,0 STARLINK-5201,1 54076U 22136AB  23049.03265813  .00008055  00000-0  52366-3 0  9995,2 54076  53.2179 312.0715 0001075  96.5024 263.6090 15.08836726 18909,6917.89,95.438,540.499,539.012,0.0
54076.0,STARLINK-5201,PAYLOAD,2023-02-19 10:10:07,15.08847864,0.0001465,53.2173,305.8298,72.7068,287.4084,0.00022415,3.282e-05,0.0,0 STARLINK-5201,1 54076U 22136AB  23050.42369729  .00003282  00000-0  22415-3 0  9990,2 54076  53.2173 305.8298 0001465  72.7068 287.4084 15.08847864 18638,6917.856,95.437,540.735,538.708,0.0
54076.0,STARLINK-5201,PAYLOAD,2023-02-19 16:31:40,15.08844011,0.0001687,53.2176,304.6436,73.592,286.5257,0.00018961,2.731e-05,0.0,0 STARLINK-5201,1 54076U 22136AB  23050.68865921  .00002731  00000-0  18961-3 0  9992,2 54076  53.2176 304.6436 0001687  73.5920 286.5257 15.08844011 19155,6917.868,95.437,540.9,538.566,0.0
54076.0,STARLINK-5201,PAYLOAD,2023-02-20 10:00:54,15.08847342,0.0001394,53.217,301.3709,77.6575,282.4573,0.00013758,1.903e-05,0.0,0 STARLINK-5201,1 54076U 22136AB  23051.41729620  .00001903  00000-0  13758-3 0  9998,2 54076  53.2170 301.3709 0001394  77.6575 282.4573 15.08847342 18786,6917.858,95.437,540.687,538.759,0.0
54076.0,STARLINK-5201,PAYLOAD,2023-02-20 22:43:59,15.08850542,0.0001286,53.2177,298.989,94.5382,265.5757,7.4921e-05,9.05e-06,0.0,0 STARLINK-5201,1 54076U 22136AB  23051.94721190  .00000905  00000-0  74921-4 0  9991,2 54076  53.2177 298.9890 0001286  94.5382 265.5757 15.08850542 19344,6917.848,95.437,540.603,538.824,0.0
54076.0,STARLINK-5201,PAYLOAD,2023-02-21 09:51:41,15.08844379,0.0001763,53.217,296.9104,67.5372,292.5807,8.8651e-05,1.123e-05,0.0,0 STARLINK-5201,1 54076U 22136AB  23052.41089662  .00001123  00000-0  88651-4 0  9993,2 54076  53.2170 296.9104 0001763  67.5372 292.5807 15.08844379 19417,6917.867,95.437,540.952,538.512,0.0
54076.0,STARLINK-5201,PAYLOAD,2023-02-21 20:59:23,15.0885021,0.0001319,53.2168,294.8272,76.5248,283.5891,0.00024362,3.592e-05,0.0,0 STARLINK-5201,1 54076U 22136AB  23052.87457207  .00003592  00000-0  24362-3 0  9997,2 54076  53.2168 294.8272 0001319  76.5248 283.5891 15.08850210 19005,6917.849,95.437,540.627,538.802,0.0
54076.0,STARLINK-5201,PAYLOAD,2023-02-22 01:45:32,15.08855743,0.0001415,53.2166,293.9346,76.6118,283.5032,0.0003086,4.629e-05,0.0,0 STARLINK-5201,1 54076U 22136AB  23053.07328885  .00004629  00000-0  30860-3 0  9991,2 54076  53.2166 293.9346 0001415  76.6118 283.5032 15.08855743 19518,6917.832,95.437,540.676,538.718,0.0
54076.0,STARLINK-5201,PAYLOAD,2023-02-22 16:04:01,15.08832161,8.91e-05,53.217,291.2583,65.9829,294.1256,-8.6038e-05,-1.656e-05,0.0,0 STARLINK-5201,1 54076U 22136AB  23053.66945793 -.00001656  00000-0 -86038-4 0  9997,2 54076  53.2170 291.2583 0000891  65.9829 294.1256 15.08832161 19609,6917.904,95.438,540.386,539.153,0.0
54076.0,STARLINK-5201,PAYLOAD,2023-02-22 22:25:33,15.08835432,9.63e-05,53.2169,290.0689,74.5621,285.5478,7.7535e-06,-1.64e-06,0.0,0 STARLINK-5201,1 54076U 22136AB  23053.93441814 -.00000164  00000-0  77535-5 0  9997,2 54076  53.2169 290.0689 0000963  74.5621 285.5478 15.08835432 19162,6917.894,95.438,540.426,539.093,0.0
54076.0,STARLINK-5201,PAYLOAD,2023-02-23 03:11:42,15.08842302,0.0001154,53.2168,289.1765,77.4022,282.7099,0.00024093,3.549e-05,0.0,0 STARLINK-5201,1 54076U 22136AB  23054.13313627  .00003549  00000-0  24093-3 0  9998,2 54076  53.2168 289.1765 0001154  77.4022 282.7099 15.08842302 19673,6917.873,95.437,540.537,538.94,0.0
54076.0,STARLINK-5201,PAYLOAD,2023-02-23 22:16:20,15.08858063,0.0001189,53.2165,285.6085,79.7158,280.3969,0.00089246,0.00013951,0.0,0 STARLINK-5201,1 54076U 22136AB  23054.92801517  .00013951  00000-0  89246-3 0  9994,2 54076  53.2165 285.6085 0001189  79.7158 280.3969 15.08858063 19311,6917.825,95.436,540.513,538.868,0.0
54076.0,STARLINK-5201,PAYLOAD,2023-02-24 03:02:29,15.08870452,0.0001215,53.2164,284.716,81.3889,278.7241,0.0011284,0.00017731,0.0,0 STARLINK-5201,1 54076U 22136AB  23055.12673062  .00017731  00000-0  11284-2 0  9995,2 54076  53.2164 284.7160 0001215  81.3889 278.7241 15.08870452 19820,6917.787,95.436,540.493,538.812,0.0
54076.0,STARLINK-5201,PAYLOAD,2023-02-24 17:20:58,15.08841795,0.0001232,53.2162,282.0398,97.5264,262.5868,-4.1903e-07,-2.95e-06,0.0,0 STARLINK-5201,1 54076U 22136AB  23055.72289477 -.00000295  00000-0 -41903-6 0  9998,2 54076  53.2162 282.0398 0001232  97.5264 262.5868 15.08841795 19911,6917.875,95.437,540.592,538.888,0.0
54076.0,STARLINK-5201,PAYLOAD,2023-02-24 22:07:07,15.08844034,0.0001024,53.2163,281.1478,84.774,275.3369,0.00024449,3.606e-05,0.0,0 STARLINK-5201,1 54076U 22136AB  23055.92161485  .00003606  00000-0  24449-3 0  9998,2 54076  53.2163 281.1478 0001024  84.7740 275.3369 15.08844034 19464,6917.868,95.437,540.441,539.025,0.0
54076.0,STARLINK-5201,PAYLOAD,2023-02-24 23:42:30,15.08846182,0.0001165,53.2164,280.8504,92.5227,267.5899,0.00034949,5.28e-05,0.0,0 STARLINK-5201,1 54076U 22136AB  23055.98785449  .00005280  00000-0  34949-3 0  9992,2 54076  53.2164 280.8504 0001165  92.5227 267.5899 15.08846182 19472,6917.861,95.437,540.532,538.921,0.0
54076.0,STARLINK-5201,PAYLOAD,2023-02-25 20:22:31,15.08839899,0.0001135,53.2161,276.985,92.489,267.6232,0.00078495,0.00012227,0.0,0 STARLINK-5201,1 54076U 22136AB  23056.84898053  .00012227  00000-0  78495-3 0  9997,2 54076  53.2161 276.9850 0001135  92.4890 267.6232 15.08839899 19605,6917.881,95.438,540.531,538.961,0.0
54076.0,STARLINK-5201,PAYLOAD,2023-02-25 23:33:18,15.08840236,0.0001221,53.2164,276.3907,97.3548,262.7583,0.00041427,6.311e-05,0.0,0 STARLINK-5201,1 54076U 22136AB  23056.98145993  .00006311  00000-0  41427-3 0  9992,2 54076  53.2164 276.3907 0001221  97.3548 262.7583 15.08840236 20104,6917.88,95.438,540.589,538.9,0.0
54076.0,STARLINK-5201,PAYLOAD,2023-02-26 13:51:46,15.08847293,0.0001216,53.2165,273.7144,95.7982,264.3149,0.00045781,7.007e-05,0.0,0 STARLINK-5201,1 54076U 22136AB  23057.57761919  .00007007  00000-0  45781-3 0  9990,2 54076  53.2165 273.7144 0001216  95.7982 264.3149 15.08847293 19718,6917.858,95.437,540.564,538.882,0.0
54076.0,STARLINK-5201,PAYLOAD,2023-02-26 23:24:04,15.08854362,0.0001196,53.2162,271.93,93.6083,266.5045,0.00054854,8.456e-05,0.0,0 STARLINK-5201,1 54076U 22136AB  23057.97505580  .00008456  00000-0  54854-3 0  9994,2 54076  53.2162 271.9300 0001196  93.6083 266.5045 15.08854362 19775,6917.836,95.437,540.529,538.874,0.0
54076.0,STARLINK-5201,PAYLOAD,2023-02-27 18:28:42,15.08868174,0.0001222,53.2164,268.3616,80.5385,279.5745,0.00094954,0.00014868,0.0,0 STARLINK-5201,1 54076U 22136AB  23058.76993373  .00014868  00000-0  94954-3 0  9992,2 54076  53.2164 268.3616 0001222  80.5385 279.5745 15.08868174 20372,6917.794,95.436,540.505,538.814,0.0
54076.0,STARLINK-5201,PAYLOAD,2023-02-27 20:04:05,15.08854271,0.0001333,53.2161,268.064,87.0983,273.0162,0.00065581,0.00010169,0.0,0 STARLINK-5201,1 54076U 22136AB  23058.83617592  .00010169  00000-0  65581-3 0  9990,2 54076  53.2161 268.0640 0001333  87.0983 273.0162 15.08854271 19904,6917.837,95.437,540.624,538.78,0.0
54076.0,STARLINK-5201,PAYLOAD,2023-02-27 21:39:28,15.08858055,0.0001374,53.2164,267.7667,82.4254,277.6894,0.00077857,0.00012131,0.0,0 STARLINK-5201,1 54076U 22136AB  23058.90241533  .00012131  00000-0  77857-3 0  9996,2 54076  53.2164 267.7667 0001374  82.4254 277.6894 15.08858055 20398,6917.825,95.436,540.641,538.74,0.0
54076.0,STARLINK-5201,PAYLOAD,2023-02-28 19:54:53,15.0883459,0.0001546,53.2163,263.6029,67.2585,292.857,0.00057171,8.821e-05,0.0,0 STARLINK-5201,1 54076U 22136AB  23059.82978642  .00008821  00000-0  57171-3 0  9994,2 54076  53.2163 263.6029 0001546  67.2585 292.8570 15.08834590 20054,6917.897,95.438,540.831,538.692,0.0
54076.0,STARLINK-5201,PAYLOAD,2023-03-01 05:27:12,15.08832408,0.0001399,53.2163,261.8176,64.1634,295.9502,0.00040652,6.186e-05,0.0,0 STARLINK-5201,1 54076U 22136AB  23060.22722910  .00006186  00000-0  40652-3 0  9993,2 54076  53.2163 261.8176 0001399  64.1634 295.9502 15.08832408 20598,6917.904,95.438,540.736,538.801,0.0
54076.0,STARLINK-5201,PAYLOAD,2023-03-01 19:45:40,15.08847196,0.000142,53.2159,259.142,62.7443,297.3694,0.00059634,9.217e-05,0.0,0 STARLINK-5201,1 54076U 22136AB  23060.82338744  .00009217  00000-0  59634-3 0  9995,2 54076  53.2159 259.1420 0001420  62.7443 297.3694 15.08847196 20208,6917.858,95.437,540.706,538.741,0.0
54076.0,STARLINK-5201,PAYLOAD,2023-03-02 00:31:49,15.08853489,0.0001434,53.2162,258.2499,61.5502,298.5634,0.0006688,0.00010376,0.0,0 STARLINK-5201,1 54076U 22136AB  23061.02210530  .00010376  00000-0  66880-3 0  9999,2 54076  53.2162 258.2499 0001434  61.5502 298.5634 15.08853489 20711,6917.839,95.437,540.696,538.712,0.0
54076.0,STARLINK-5201,PAYLOAD,2023-03-02 19:36:27,15.08852234,0.0001339,53.2159,254.6823,60.4855,299.6271,0.00046906,7.187e-05,0.0,0 STARLINK-5201,1 54076U 22136AB  23061.81698431  .00007187  00000-0  46906-3 0  9999,2 54076  53.2159 254.6823 0001339  60.4855 299.6271 15.08852234 20357,6917.843,95.437,540.634,538.782,0.0
54076.0,STARLINK-5201,PAYLOAD,2023-03-03 05:08:46,15.08849837,0.0001414,53.2158,252.8974,66.94,293.1741,0.00054162,8.345e-05,0.0,0 STARLINK-5201,1 54076U 22136AB  23062.21442383  .00008345  00000-0  54162-3 0  9997,2 54076  53.2158 252.8974 0001414  66.9400 293.1741 15.08849837 20899,6917.85,95.437,540.694,538.737,0.0
